[{"OBJECT_NAME":"STARLINK-34311","OBJECT_ID":"2025-117D","EPOCH":"2025-11-08T02:01:05.572128","MEAN_MOTION":15.3022904,"ECCENTRICITY":0.00011812,"INCLINATION":53.1588,"RA_OF_ASC_NODE":244.7163,"ARG_OF_PERICENTER":68.6318,"MEAN_ANOMALY":291.4808,"EPHEMERIS_TYPE":0,"CLASSIFICATION_TYPE":"U","NORAD_CAT_ID":64206,"ELEMENT_SET_NO":999,"REV_AT_EPOCH":2593,"BSTAR":0.0015650502,"MEAN_MOTION_DOT":0.00046324,"MEAN_MOTION_DDOT":0},{"OBJECT_NAME":"STARLINK-34324","OBJECT_ID":"2025-117E","EPOCH":"2025-11-08T02:46:30.171936","MEAN_MOTION":15.30168757,"ECCENTRICITY":0.00013104,"INCLINATION":53.1586,"RA_OF_ASC_NODE":244.202,"ARG_OF_PERICENTER":69.3135,"MEAN_ANOMALY":290.8006,"EPHEMERIS_TYPE":0,"CLASSIFICATION_TYPE":"U","NORAD_CAT_ID":64207,"ELEMENT_SET_NO":999,"REV_AT_EPOCH":2488,"BSTAR":0.0017643985,"MEAN_MOTION_DOT":0.00052214,"MEAN_MOTION_DDOT":0},{"OBJECT_NAME":"STARLINK-34327","OBJECT_ID":"2025-117F","EPOCH":"2025-11-08T02:25:14.047392","MEAN_MOTION":15.30196411,"ECCENTRICITY":9.602e-5,"INCLINATION":53.1584,"RA_OF_ASC_NODE":244.1114,"ARG_OF_PERICENTER":100.283,"MEAN_ANOMALY":259.8279,"EPHEMERIS_TYPE":0,"CLASSIFICATION_TYPE":"U","NORAD_CAT_ID":64208,"ELEMENT_SET_NO":999,"REV_AT_EPOCH":2487,"BSTAR":0.0013553714,"MEAN_MOTION_DOT":0.00039995,"MEAN_MOTION_DDOT":0},{"OBJECT_NAME":"STARLINK-33944","OBJECT_ID":"2025-117G","EPOCH":"2025-11-08T01:04:51.582144","MEAN_MOTION":15.30193572,"ECCENTRICITY":0.00012593,"INCLINATION":53.1598,"RA_OF_ASC_NODE":244.4793,"ARG_OF_PERICENTER":70.9651,"MEAN_ANOMALY":289.1486,"EPHEMERIS_TYPE":0,"CLASSIFICATION_TYPE":"U","NORAD_CAT_ID":64209,"ELEMENT_SET_NO":999,"REV_AT_EPOCH":2593,"BSTAR":0.00065262379,"MEAN_MOTION_DOT":0.00019015,"MEAN_MOTION_DDOT":0},{"OBJECT_NAME":"STARLINK-34310","OBJECT_ID":"2025-117H","EPOCH":"2025-11-08T02:28:16.783392","MEAN_MOTION":15.30237587,"ECCENTRICITY":0.0001363,"INCLINATION":53.1586,"RA_OF_ASC_NODE":244.1242,"ARG_OF_PERICENTER":124.1424,"MEAN_ANOMALY":235.9707,"EPHEMERIS_TYPE":0,"CLASSIFICATION_TYPE":"U","NORAD_CAT_ID":64210,"ELEMENT_SET_NO":999,"REV_AT_EPOCH":2591,"BSTAR":0.001939081,"MEAN_MOTION_DOT":0.00057584,"MEAN_MOTION_DDOT":0},{"OBJECT_NAME":"STARLINK-34258","OBJECT_ID":"2025-117J","EPOCH":"2025-11-08T02:11:33.767520","MEAN_MOTION":15.30232068,"ECCENTRICITY":0.00013443,"INCLINATION":53.159,"RA_OF_ASC_NODE":244.0507,"ARG_OF_PERICENTER":55.1503,"MEAN_ANOMALY":304.9624,"EPHEMERIS_TYPE":0,"CLASSIFICATION_TYPE":"U","NORAD_CAT_ID":64211,"ELEMENT_SET_NO":999,"REV_AT_EPOCH":2591,"BSTAR":0.0017517419,"MEAN_MOTION_DOT":0.00051937,"MEAN_MOTION_DDOT":0},{"OBJECT_NAME":"STARLINK-34284","OBJECT_ID":"2025-117K","EPOCH":"2025-11-08T02:20:39.426720","MEAN_MOTION":15.30231307,"ECCENTRICITY":9.68e-5,"INCLINATION":53.1587,"RA_OF_ASC_NODE":244.0883,"ARG_OF_PERICENTER":80.5526,"MEAN_ANOMALY":279.5584,"EPHEMERIS_TYPE":0,"CLASSIFICATION_TYPE":"U","NORAD_CAT_ID":64212,"ELEMENT_SET_NO":999,"REV_AT_EPOCH":2591,"BSTAR":0.0014078832,"MEAN_MOTION_DOT":0.00041612,"MEAN_MOTION_DDOT":0},{"OBJECT_NAME":"STARLINK-34332","OBJECT_ID":"2025-117L","EPOCH":"2025-11-08T02:07:09.907104","MEAN_MOTION":15.30231261,"ECCENTRICITY":0.0001132,"INCLINATION":53.1593,"RA_OF_ASC_NODE":244.7406,"ARG_OF_PERICENTER":66.7868,"MEAN_ANOMALY":293.3252,"EPHEMERIS_TYPE":0,"CLASSIFICATION_TYPE":"U","NORAD_CAT_ID":64213,"ELEMENT_SET_NO":999,"REV_AT_EPOCH":2593,"BSTAR":0.0015896894,"MEAN_MOTION_DOT":0.00047067,"MEAN_MOTION_DDOT":0},{"OBJECT_NAME":"STARLINK-34283","OBJECT_ID":"2025-117M","EPOCH":"2025-11-08T02:14:34.877472","MEAN_MOTION":15.30160437,"ECCENTRICITY":0.00011946,"INCLINATION":53.1597,"RA_OF_ASC_NODE":244.0641,"ARG_OF_PERICENTER":117.0347,"MEAN_ANOMALY":243.0776,"EPHEMERIS_TYPE":0,"CLASSIFICATION_TYPE":"U","NORAD_CAT_ID":64214,"ELEMENT_SET_NO":999,"REV_AT_EPOCH":2591,"BSTAR":0.00093797519,"MEAN_MOTION_DOT":0.0002749,"MEAN_MOTION_DDOT":0},{"OBJECT_NAME":"STARLINK-34349","OBJECT_ID":"2025-117N","EPOCH":"2025-11-08T03:07:47.100864","MEAN_MOTION":15.30209828,"ECCENTRICITY":0.00014679,"INCLINATION":53.1595,"RA_OF_ASC_NODE":244.2883,"ARG_OF_PERICENTER":64.7483,"MEAN_ANOMALY":295.367,"EPHEMERIS_TYPE":0,"CLASSIFICATION_TYPE":"U","NORAD_CAT_ID":64215,"ELEMENT_SET_NO":999,"REV_AT_EPOCH":2591,"BSTAR":0.0020126457,"MEAN_MOTION_DOT":0.00059748,"MEAN_MOTION_DDOT":0},{"OBJECT_NAME":"STARLINK-34296","OBJECT_ID":"2025-117P","EPOCH":"2025-11-08T02:43:28.178976","MEAN_MOTION":15.30217778,"ECCENTRICITY":0.00012514,"INCLINATION":53.1577,"RA_OF_ASC_NODE":244.1866,"ARG_OF_PERICENTER":60.9665,"MEAN_ANOMALY":299.1461,"EPHEMERIS_TYPE":0,"CLASSIFICATION_TYPE":"U","NORAD_CAT_ID":64216,"ELEMENT_SET_NO":999,"REV_AT_EPOCH":2594,"BSTAR":0.0011132786,"MEAN_MOTION_DOT":0.00032777,"MEAN_MOTION_DDOT":0},{"OBJECT_NAME":"STARLINK-34320","OBJECT_ID":"2025-117Q","EPOCH":"2025-11-08T02:04:07.460544","MEAN_MOTION":15.3022811,"ECCENTRICITY":0.00013451,"INCLINATION":53.1597,"RA_OF_ASC_NODE":244.7294,"ARG_OF_PERICENTER":115.3692,"MEAN_ANOMALY":244.7448,"EPHEMERIS_TYPE":0,"CLASSIFICATION_TYPE":"U","NORAD_CAT_ID":64217,"ELEMENT_SET_NO":999,"REV_AT_EPOCH":2590,"BSTAR":0.0014234722,"MEAN_MOTION_DOT":0.00042076,"MEAN_MOTION_DDOT":0},{"OBJECT_NAME":"STARLINK-34300","OBJECT_ID":"2025-117R","EPOCH":"2025-11-08T02:29:47.373792","MEAN_MOTION":15.30213442,"ECCENTRICITY":0.00012484,"INCLINATION":53.1586,"RA_OF_ASC_NODE":244.1309,"ARG_OF_PERICENTER":75.3955,"MEAN_ANOMALY":284.7184,"EPHEMERIS_TYPE":0,"CLASSIFICATION_TYPE":"U","NORAD_CAT_ID":64218,"ELEMENT_SET_NO":999,"REV_AT_EPOCH":2591,"BSTAR":0.0026385489,"MEAN_MOTION_DOT":0.0007865,"MEAN_MOTION_DDOT":0},{"OBJECT_NAME":"STARLINK-34323","OBJECT_ID":"2025-117S","EPOCH":"2025-11-08T02:37:23.504448","MEAN_MOTION":15.30220824,"ECCENTRICITY":8.375e-5,"INCLINATION":53.1587,"RA_OF_ASC_NODE":244.1613,"ARG_OF_PERICENTER":84.1229,"MEAN_ANOMALY":275.9867,"EPHEMERIS_TYPE":0,"CLASSIFICATION_TYPE":"U","NORAD_CAT_ID":64219,"ELEMENT_SET_NO":999,"REV_AT_EPOCH":2594,"BSTAR":0.0020423636,"MEAN_MOTION_DOT":0.00060664,"MEAN_MOTION_DDOT":0},{"OBJECT_NAME":"STARLINK-34328","OBJECT_ID":"2025-117T","EPOCH":"2025-11-08T02:58:39.955584","MEAN_MOTION":15.30209327,"ECCENTRICITY":0.00012804,"INCLINATION":53.1581,"RA_OF_ASC_NODE":244.2521,"ARG_OF_PERICENTER":64.0089,"MEAN_ANOMALY":296.1044,"EPHEMERIS_TYPE":0,"CLASSIFICATION_TYPE":"U","NORAD_CAT_ID":64220,"ELEMENT_SET_NO":999,"REV_AT_EPOCH":2591,"BSTAR":0.0017468244,"MEAN_MOTION_DOT":0.00051753,"MEAN_MOTION_DDOT":0},{"OBJECT_NAME":"STARLINK-34326","OBJECT_ID":"2025-117U","EPOCH":"2025-11-08T03:01:42.282912","MEAN_MOTION":15.30224664,"ECCENTRICITY":0.00010514,"INCLINATION":53.1575,"RA_OF_ASC_NODE":244.2659,"ARG_OF_PERICENTER":114.5808,"MEAN_ANOMALY":245.5302,"EPHEMERIS_TYPE":0,"CLASSIFICATION_TYPE":"U","NORAD_CAT_ID":64221,"ELEMENT_SET_NO":999,"REV_AT_EPOCH":2594,"BSTAR":0.0013248901,"MEAN_MOTION_DOT":0.00039117,"MEAN_MOTION_DDOT":0},{"OBJECT_NAME":"STARLINK-34318","OBJECT_ID":"2025-117V","EPOCH":"2025-11-08T04:46:24.350880","MEAN_MOTION":15.30185763,"ECCENTRICITY":0.00010615,"INCLINATION":53.1598,"RA_OF_ASC_NODE":244.0062,"ARG_OF_PERICENTER":95.959,"MEAN_ANOMALY":264.1531,"EPHEMERIS_TYPE":0,"CLASSIFICATION_TYPE":"U","NORAD_CAT_ID":64222,"ELEMENT_SET_NO":999,"REV_AT_EPOCH":2592,"BSTAR":0.0019306815,"MEAN_MOTION_DOT":0.00057238,"MEAN_MOTION_DDOT":0},{"OBJECT_NAME":"STARLINK-34337","OBJECT_ID":"2025-117W","EPOCH":"2025-11-08T03:21:27.598464","MEAN_MOTION":15.30227449,"ECCENTRICITY":9.28e-5,"INCLINATION":53.1596,"RA_OF_ASC_NODE":244.3492,"ARG_OF_PERICENTER":85.159,"MEAN_ANOMALY":274.9517,"EPHEMERIS_TYPE":0,"CLASSIFICATION_TYPE":"U","NORAD_CAT_ID":64223,"ELEMENT_SET_NO":999,"REV_AT_EPOCH":2591,"BSTAR":0.0014212321,"MEAN_MOTION_DOT":0.00042008,"MEAN_MOTION_DDOT":0},{"OBJECT_NAME":"STARLINK-34304","OBJECT_ID":"2025-117X","EPOCH":"2025-11-08T02:48:02.316672","MEAN_MOTION":15.30226389,"ECCENTRICITY":0.00011737,"INCLINATION":53.1567,"RA_OF_ASC_NODE":244.2047,"ARG_OF_PERICENTER":127.5754,"MEAN_ANOMALY":232.5354,"EPHEMERIS_TYPE":0,"CLASSIFICATION_TYPE":"U","NORAD_CAT_ID":64224,"ELEMENT_SET_NO":999,"REV_AT_EPOCH":2594,"BSTAR":0.0017228767,"MEAN_MOTION_DOT":0.00051061,"MEAN_MOTION_DDOT":0},{"OBJECT_NAME":"STARLINK-34289","OBJECT_ID":"2025-117Y","EPOCH":"2025-11-08T03:03:13.600800","MEAN_MOTION":15.30228892,"ECCENTRICITY":0.00013132,"INCLINATION":53.1578,"RA_OF_ASC_NODE":244.2717,"ARG_OF_PERICENTER":87.5867,"MEAN_ANOMALY":272.5284,"EPHEMERIS_TYPE":0,"CLASSIFICATION_TYPE":"U","NORAD_CAT_ID":64225,"ELEMENT_SET_NO":999,"REV_AT_EPOCH":2594,"BSTAR":0.0014547193,"MEAN_MOTION_DOT":0.00043014,"MEAN_MOTION_DDOT":0},{"OBJECT_NAME":"STARLINK-34347","OBJECT_ID":"2025-117Z","EPOCH":"2025-11-08T03:16:53.751072","MEAN_MOTION":15.30223876,"ECCENTRICITY":0.00010788,"INCLINATION":53.1594,"RA_OF_ASC_NODE":244.3257,"ARG_OF_PERICENTER":130.1601,"MEAN_ANOMALY":229.9495,"EPHEMERIS_TYPE":0,"CLASSIFICATION_TYPE":"U","NORAD_CAT_ID":64226,"ELEMENT_SET_NO":999,"REV_AT_EPOCH":2591,"BSTAR":0.0011622443,"MEAN_MOTION_DOT":0.00034247,"MEAN_MOTION_DDOT":0},{"OBJECT_NAME":"STARLINK-34330","OBJECT_ID":"2025-117AA","EPOCH":"2025-11-08T01:20:03.265440","MEAN_MOTION":15.3023471,"ECCENTRICITY":0.00013307,"INCLINATION":53.1582,"RA_OF_ASC_NODE":244.5311,"ARG_OF_PERICENTER":91.0786,"MEAN_ANOMALY":269.0367,"EPHEMERIS_TYPE":0,"CLASSIFICATION_TYPE":"U","NORAD_CAT_ID":64227,"ELEMENT_SET_NO":999,"REV_AT_EPOCH":2590,"BSTAR":0.0016346215,"MEAN_MOTION_DOT":0.00048422,"MEAN_MOTION_DDOT":0},{"OBJECT_NAME":"STARLINK-34167","OBJECT_ID":"2025-117AB","EPOCH":"2025-11-08T02:16:06.910752","MEAN_MOTION":15.3018682,"ECCENTRICITY":0.00012703,"INCLINATION":53.1593,"RA_OF_ASC_NODE":244.0645,"ARG_OF_PERICENTER":88.1839,"MEAN_ANOMALY":271.9307,"EPHEMERIS_TYPE":0,"CLASSIFICATION_TYPE":"U","NORAD_CAT_ID":64228,"ELEMENT_SET_NO":999,"REV_AT_EPOCH":2594,"BSTAR":0.0013922746,"MEAN_MOTION_DOT":0.00041087,"MEAN_MOTION_DDOT":0}]
